STARLINK-3057           
1 49139U 21082K   26068.88039440  .00000116  00000+0  17535-4 0  9999
2 49139  69.9986 253.9616 0002672 269.0716  91.0136 14.98332376246991
SHIYAN-24C 02           
1 58651U 23206B   26068.89175597  .00002770  00000+0  23935-3 0  9991
2 58651  97.3985  41.8071 0003465  80.6641 279.4974 14.97980163120443
